INNOSAT 16 (RS92S7)     
1 64878U 25155C   25216.89866729  .00003310  00000+0  15126-3 0  9996
2 64878  97.4104 181.9861 0010635 208.7371 151.3280 15.21220426 32524
GEOSCAN 6 (RS92S6)      
1 64879U 25155D   25216.89433605  .00007455  00000+0  33020-3 0  9997
2 64879  97.4118 181.9963 0008499 200.7740 159.3151 15.21896007 32529
GEOSCAN 1 (RS92S1)      
1 64880U 25155E   25216.89422716  .00007996  00000+0  35368-3 0  9997
2 64880  97.4121 181.9974 0008442 201.3053 158.7833 15.21917245 32527
239ALFEROV (RS61S)      
1 64881U 25155F   25216.89357028  .00009302  00000+0  40959-3 0  9996
2 64881  97.4135 182.0003 0008251 200.8285 159.2616 15.22028333 32524
2025-155G               
1 64882U 25155G   25216.82741747  .00006663  00000+0  29414-3 0  9995
2 64882  97.4136 181.9222 0007673 200.4995 159.5935 15.22057067 32510
2025-155H               
1 64883U 25155H   25216.82731994  .00006715  00000+0  29625-3 0  9991
2 64883  97.4133 181.9218 0007617 200.5341 159.5590 15.22071904 32510
2025-155J               
1 64884U 25155J   25217.15593717  .00006511  00000+0  28731-3 0  9999
2 64884  97.4131 182.2459 0007603 199.9909 160.1030 15.22077646 32567
2025-155K               
1 64885U 25155K   25217.15510278  .00015616  00000+0  67899-3 0  9995
2 64885  97.4095 182.2507 0009454 187.9291 172.1798 15.22315436 32564
2025-155L               
1 64886U 25155L   25216.89210489  .00013626  00000+0  59338-3 0  9995
2 64886  97.4097 181.9923 0009081 188.7720 171.3359 15.22298616 32527
2025-155M               
1 64887U 25155M   25216.89212719  .00012180  00000+0  53131-3 0  9993
2 64887  97.4113 181.9952 0008790 189.4011 170.7062 15.22270350 32525
2025-155N               
1 64888U 25155N   25217.15483105  .00014682  00000+0  63840-3 0  9990
2 64888  97.4104 182.2528 0009059 187.4938 172.6164 15.22333492 32569
2025-155P               
1 64889U 25155P   25216.89229134  .00004385  00000+0  19413-3 0  9997
2 64889  97.4134 181.9936 0007276 196.7047 163.3951 15.22155224 32527
GEOSCAN 2 (RS92S2)      
1 64890U 25155Q   25216.89141106  .00007808  00000+0  34139-3 0  9996
2 64890  97.4117 181.9974 0008119 186.5770 173.5361 15.22323078 32521
2025-155R               
1 64891U 25155R   25216.89080616  .00009506  00000+0  41371-3 0  9998
2 64891  97.4128 181.9939 0006612 205.3016 154.7898 15.22428579 32522
2025-155S               
1 64892U 25155S   25216.89076596  .00009517  00000+0  41414-3 0  9991
2 64892  97.4129 181.9946 0006640 206.6290 153.4607 15.22434815 32525
GEOSCAN 3 (RS92S3)      
1 64893U 25155T   25216.89022189  .00010061  00000+0  43650-3 0  9991
2 64893  97.4128 181.9950 0006415 207.9692 152.1201 15.22520870 32523
INNOSAT 3 (RS92S0)      
1 64894U 25155U   25216.88978699  .00011243  00000+0  48621-3 0  9993
2 64894  97.4128 181.9957 0006351 210.1705 149.9166 15.22601059 32524
2025-155V               
1 64895U 25155V   25217.15598935  .00006853  00000+0  30215-3 0  9997
2 64895  97.4139 182.2467 0007669 198.7912 161.3042 15.22087618 32554
MICROCARB               
1 64899U 25156A   25216.94340905  .00000509  00000+0  89396-4 0  9997
2 64899  98.0146 294.3146 0016161 197.9792 162.0845 14.71749739  1441
CO3D 3                  
1 64900U 25156B   25216.94546481  .00005999  00000+0  26171-3 0  9996
2 64900  97.4544 295.0596 0003819 155.8017 204.3399 15.22523225  1480
CO3D 4                  
1 64901U 25156C   25216.94589743  .00005966  00000+0  26032-3 0  9995
2 64901  97.4575 295.0655 0004049 153.4767 206.6677 15.22517746  1488
CO3D 2                  
1 64902U 25156D   25217.21091517  .00005401  00000+0  24132-3 0  9997
2 64902  97.4448 295.3119 0004895 153.5184 206.6303 15.21747614  1528
CO3D 1                  
1 64903U 25156E   25216.94840504  .00006610  00000+0  29459-3 0  9995
2 64903  97.4483 295.0588 0005307 156.2109 203.9373 15.21748441  1482
STARLINK-34647          
1 64904U 25157A   25216.91668981 -.01084082  00000+0 -50247-2 0  9991
2 64904  53.1539 288.0724 0000743  90.7297  33.5023 15.85364581  2712
STARLINK-34273          
1 64905U 25157B   25216.91668981 -.01085646  00000+0 -50280-2 0  9996
2 64905  53.1542 288.0676 0000799  85.3056  41.0916 15.85383968  2723
STARLINK-34713          
1 64906U 25157C   25216.91668981 -.01096824  00000+0 -50796-2 0  9999
2 64906  53.1540 288.0626 0000770  85.5889  43.2458 15.85412946  2670
STARLINK-34712          
1 64907U 25157D   25216.91668981 -.01103626  00000+0 -51101-2 0  9990
2 64907  53.1539 288.0572 0000827  73.7493  57.6304 15.85433412  2717
STARLINK-34702          
1 64908U 25157E   25217.16667824 -.01092456  00000+0 -51977-2 0  9993
2 64908  53.1540 286.7903 0000847  98.2241  23.0132 15.84848012  2753
STARLINK-34687          
1 64909U 25157F   25217.16667824 -.01112546  00000+0 -53025-2 0  9993
2 64909  53.1538 286.7847 0000850  89.1370  34.7327 15.84863110  2698
STARLINK-34642          
1 64910U 25157G   25217.16667824 -.01144544  00000+0 -53611-2 0  9999
2 64910  53.1540 286.7795 0000822 100.2613  26.1546 15.84872454  2755
STARLINK-34718          
1 64911U 25157H   25217.16667824 -.01166292  00000+0 -54717-2 0  9992
2 64911  53.1541 286.7742 0000884  85.1805  43.8741 15.84884377  2751
STARLINK-34711          
1 64912U 25157J   25217.16667824 -.01185349  00000+0 -55683-2 0  9990
2 64912  53.1540 286.7687 0000926 100.8305  30.7362 15.84897260  2755
STARLINK-34659          
1 64913U 25157K   25217.16667824 -.01180952  00000+0 -55459-2 0  9997
2 64913  53.1538 286.7634 0000779  96.6259  37.5016 15.84895945  2693
STARLINK-34571          
1 64914U 25157L   25217.16667824 -.01191429  00000+0 -56011-2 0  9994
2 64914  53.1539 286.7576 0000812  92.8642  43.9787 15.84895574  2696
STARLINK-34636          
1 64915U 25157M   25217.16667824 -.01200043  00000+0 -56448-2 0  9992
2 64915  53.1538 286.7525 0000848  96.5106  42.7997 15.84901634  2757
STARLINK-34695          
1 64916U 25157N   25217.16667824 -.01205925  00000+0 -56727-2 0  9997
2 64916  53.1539 286.7477 0000882  96.4068  45.1953 15.84912843  2752
STARLINK-34653          
1 64917U 25157P   25217.16667824 -.01219912  00000+0 -57457-2 0  9990
2 64917  53.1539 286.7420 0000833  95.2006  49.0597 15.84917035  2694
STARLINK-34611          
1 64918U 25157Q   25217.16667824 -.01234777  00000+0 -58219-2 0  9994
2 64918  53.1539 286.7368 0000864  98.6245  48.1141 15.84926313  2753
STARLINK-34599          
1 64919U 25157R   25217.16667824 -.01409045  00000+0 -55593-2 0  9999
2 64919  53.1543 286.4933 0000758  83.6590 180.9331 15.88875900  2747
STARLINK-34069          
1 64920U 25157S   25217.16667824 -.01252361  00000+0 -59155-2 0  9996
2 64920  53.1542 286.7309 0000914  89.8636  59.6665 15.84925932  2751
STARLINK-34699          
1 64921U 25157T   25217.16667824 -.01250437  00000+0 -59015-2 0  9994
2 64921  53.1540 286.7263 0000912  88.4485  63.1822 15.84938961  2755
STARLINK-34700          
1 64922U 25157U   25217.16667824 -.01262954  00000+0 -59674-2 0  9993
2 64922  53.1539 286.7209 0000928  97.3010  56.9548 15.84941916  2696
STARLINK-34643          
1 64923U 25157V   25217.16667824 -.01276661  00000+0 -60427-2 0  9992
2 64923  53.1542 286.7095 0000890  88.5410  71.0805 15.84935742  2759
STARLINK-34199          
1 64924U 25157W   25217.16667824 -.01276432  00000+0 -60382-2 0  9999
2 64924  53.1542 286.7155 0000920  92.8013  64.0513 15.84946560  2699
STARLINK-34579          
1 64925U 25157X   25217.16667824 -.01288556  00000+0 -61014-2 0  9993
2 64925  53.1539 286.7053 0000923  97.1326  64.6821 15.84952781  2758
STARLINK-34543          
1 64926U 25157Y   25217.16667824 -.01307707  00000+0 -61894-2 0  9990
2 64926  53.1549 286.6885 0000871 104.4598  66.1790 15.85003469  2693
STARLINK-34661          
1 64927U 25157Z   25217.16667824 -.01426295  00000+0 -56456-2 0  9993
2 64927  53.1543 286.4845 0000700  97.2332 171.5926 15.88848978  2482
STARLINK-34248          
1 64928U 25157AA  25217.16667824 -.01301609  00000+0 -61650-2 0  9997
2 64928  53.1540 286.7008 0000963 103.2571  60.6908 15.84974424  2758
STARLINK-34290          
1 64929U 25157AB  25217.16667824 -.01303388  00000+0 -61732-2 0  9995
2 64929  53.1540 286.6957 0000948  98.9163  67.4048 15.84979164  2757
STARLINK-34220          
1 64930U 25157AC  25217.16667824 -.01432317  00000+0 -56636-2 0  9999
2 64930  53.1542 286.4804 0000707 105.2868 165.4212 15.88881757  2641
STARLINK-34715          
1 64931U 25157AD  25217.16667824 -.01306525  00000+0 -61900-2 0  9991
2 64931  53.1539 286.6905 0000963 105.2859  63.5567 15.84979318  2756
STARLINK-34705          
1 64932U 25158A   25217.16667824 -.01750689  00000+0 -11730-1 0  9992
2 64932  97.5977  78.6248 0001989  72.9423 324.9150 15.78035085  2647
STARLINK-34737          
1 64933U 25158B   25217.16667824 -.01748881  00000+0 -11717-1 0  9999
2 64933  97.5974  78.6254 0001902  72.0774 327.6993 15.78034785  2648
STARLINK-34775          
1 64934U 25158C   25217.16667824 -.01747324  00000+0 -11706-1 0  9999
2 64934  97.5972  78.6263 0001881  74.1149 327.5838 15.78033489  2649
STARLINK-34726          
1 64935U 25158D   25217.16667824 -.01756942  00000+0 -11778-1 0  9995
2 64935  97.5969  78.6268 0001578  58.5427 345.0749 15.78039130  2587
STARLINK-34529          
1 64936U 25158E   25217.16667824 -.01773535  00000+0 -11892-1 0  9990
2 64936  97.5974  78.6284 0001292  71.9740 333.5357 15.78065513  2640
STARLINK-34743          
1 64937U 25158F   25217.16667824 -.01783623  00000+0 -11969-1 0  9995
2 64937  97.5971  78.6291 0001411  69.5167 337.9271 15.78063963  2645
STARLINK-34730          
1 64938U 25158G   25217.16667824 -.01794880  00000+0 -12054-1 0  9999
2 64938  97.5973  78.6294 0001529  59.1969 350.1774 15.78064356  2581
STARLINK-34714          
1 64939U 25158H   25217.16667824 -.01774512  00000+0 -11904-1 0  9993
2 64939  97.5974  78.6302 0001654  69.4999 341.7937 15.78052750  2424
